CCSDS_OMM_VERS = 2.0
CREATION_DATE  = 
ORIGINATOR     = 

OBJECT_NAME    = CORAL
OBJECT_ID      = 1998-067YA
CENTER_NAME    = EARTH
REF_FRAME      = TEME
TIME_SYSTEM    = UTC
MEAN_ELEMENT_THEORY = SGP/SGP4

EPOCH          = 2026-04-01T21:08:51.890496
MEAN_MOTION    = 15.58404282
ECCENTRICITY   = .00132871
INCLINATION    = 51.6293
RA_OF_ASC_NODE = 315.5246
ARG_OF_PERICENTER = 260.7117
MEAN_ANOMALY   = 99.2373

EPHEMERIS_TYPE = 0
CLASSIFICATION_TYPE = U
NORAD_CAT_ID   = 67684
ELEMENT_SET_NO = 999
REV_AT_EPOCH   = 840
BSTAR          = .12213338E-2
MEAN_MOTION_DOT = .95741E-3
MEAN_MOTION_DDOT = 0

CCSDS_OMM_VERS = 2.0
CREATION_DATE  = 
ORIGINATOR     = 

OBJECT_NAME    = GXIBA-1
OBJECT_ID      = 1998-067YB
CENTER_NAME    = EARTH
REF_FRAME      = TEME
TIME_SYSTEM    = UTC
MEAN_ELEMENT_THEORY = SGP/SGP4

EPOCH          = 2026-04-01T21:14:06.336384
MEAN_MOTION    = 15.54391194
ECCENTRICITY   = .00122958
INCLINATION    = 51.6317
RA_OF_ASC_NODE = 316.2995
ARG_OF_PERICENTER = 267.6907
MEAN_ANOMALY   = 92.2676

EPHEMERIS_TYPE = 0
CLASSIFICATION_TYPE = U
NORAD_CAT_ID   = 67685
ELEMENT_SET_NO = 999
REV_AT_EPOCH   = 839
BSTAR          = .72618328E-3
MEAN_MOTION_DOT = .48495E-3
MEAN_MOTION_DDOT = 0

CCSDS_OMM_VERS = 2.0
CREATION_DATE  = 
ORIGINATOR     = 

OBJECT_NAME    = UITMSAT-2
OBJECT_ID      = 1998-067YC
CENTER_NAME    = EARTH
REF_FRAME      = TEME
TIME_SYSTEM    = UTC
MEAN_ELEMENT_THEORY = SGP/SGP4

EPOCH          = 2026-04-01T20:49:18.529248
MEAN_MOTION    = 15.55443039
ECCENTRICITY   = .00093331
INCLINATION    = 51.6311
RA_OF_ASC_NODE = 316.1868
ARG_OF_PERICENTER = 241.1097
MEAN_ANOMALY   = 118.8958

EPHEMERIS_TYPE = 0
CLASSIFICATION_TYPE = U
NORAD_CAT_ID   = 67686
ELEMENT_SET_NO = 999
REV_AT_EPOCH   = 839
BSTAR          = .85240388E-3
MEAN_MOTION_DOT = .59268E-3
MEAN_MOTION_DDOT = 0

CCSDS_OMM_VERS = 2.0
CREATION_DATE  = 
ORIGINATOR     = 

OBJECT_NAME    = HMU-SAT2
OBJECT_ID      = 1998-067YD
CENTER_NAME    = EARTH
REF_FRAME      = TEME
TIME_SYSTEM    = UTC
MEAN_ELEMENT_THEORY = SGP/SGP4

EPOCH          = 2026-04-01T21:22:10.189344
MEAN_MOTION    = 15.54129932
ECCENTRICITY   = .00088953
INCLINATION    = 51.6317
RA_OF_ASC_NODE = 316.3398
ARG_OF_PERICENTER = 243.7155
MEAN_ANOMALY   = 116.2923

EPHEMERIS_TYPE = 0
CLASSIFICATION_TYPE = U
NORAD_CAT_ID   = 67687
ELEMENT_SET_NO = 999
REV_AT_EPOCH   = 831
BSTAR          = .73194959E-3
MEAN_MOTION_DOT = .48342E-3
MEAN_MOTION_DDOT = 0

CCSDS_OMM_VERS = 2.0
CREATION_DATE  = 
ORIGINATOR     = 

OBJECT_NAME    = LEOPARD
OBJECT_ID      = 1998-067YE
CENTER_NAME    = EARTH
REF_FRAME      = TEME
TIME_SYSTEM    = UTC
MEAN_ELEMENT_THEORY = SGP/SGP4

EPOCH          = 2026-04-01T21:00:36.852192
MEAN_MOTION    = 15.54964174
ECCENTRICITY   = .00090838
INCLINATION    = 51.6312
RA_OF_ASC_NODE = 316.2399
ARG_OF_PERICENTER = 241.2803
MEAN_ANOMALY   = 118.7275

EPHEMERIS_TYPE = 0
CLASSIFICATION_TYPE = U
NORAD_CAT_ID   = 67688
ELEMENT_SET_NO = 999
REV_AT_EPOCH   = 831
BSTAR          = .79651661E-3
MEAN_MOTION_DOT = .54338E-3
MEAN_MOTION_DDOT = 0

CCSDS_OMM_VERS = 2.0
CREATION_DATE  = 
ORIGINATOR     = 

OBJECT_NAME    = CREW DRAGON 12
OBJECT_ID      = 2026-031A
CENTER_NAME    = EARTH
REF_FRAME      = TEME
TIME_SYSTEM    = UTC
MEAN_ELEMENT_THEORY = SGP/SGP4

EPOCH          = 2026-04-01T21:00:31.002048
MEAN_MOTION    = 15.48704825
ECCENTRICITY   = .00062363
INCLINATION    = 51.6331
RA_OF_ASC_NODE = 317.7347
ARG_OF_PERICENTER = 261.1612
MEAN_ANOMALY   = 98.8670

EPHEMERIS_TYPE = 0
CLASSIFICATION_TYPE = U
NORAD_CAT_ID   = 67796
ELEMENT_SET_NO = 999
REV_AT_EPOCH   = 55989
BSTAR          = .16572922E-3
MEAN_MOTION_DOT = .8601E-4
MEAN_MOTION_DDOT = 0

CCSDS_OMM_VERS = 2.0
CREATION_DATE  = 
ORIGINATOR     = 

OBJECT_NAME    = PROGRESS-MS 33
OBJECT_ID      = 2026-058A
CENTER_NAME    = EARTH
REF_FRAME      = TEME
TIME_SYSTEM    = UTC
MEAN_ELEMENT_THEORY = SGP/SGP4

EPOCH          = 2026-04-01T21:00:31.002048
MEAN_MOTION    = 15.48704825
ECCENTRICITY   = .00062363
INCLINATION    = 51.6331
RA_OF_ASC_NODE = 317.7347
ARG_OF_PERICENTER = 261.1612
MEAN_ANOMALY   = 98.8670

EPHEMERIS_TYPE = 0
CLASSIFICATION_TYPE = U
NORAD_CAT_ID   = 68319
ELEMENT_SET_NO = 999
REV_AT_EPOCH   = 125
BSTAR          = .16572922E-3
MEAN_MOTION_DOT = .8601E-4
MEAN_MOTION_DDOT = 0

