CORAL                   
1 67684U 98067YA  26091.88115614  .00095741  00000+0  12213-2 0  9999
2 67684  51.6293 315.5246 0013287 260.7117  99.2373 15.58404282  8404
GXIBA-1                 
1 67685U 98067YB  26091.88479556  .00048495  00000+0  72618-3 0  9998
2 67685  51.6317 316.2995 0012295 267.6907  92.2676 15.54391194  8392
UITMSAT-2               
1 67686U 98067YC  26091.86757557  .00059268  00000+0  85240-3 0  9992
2 67686  51.6311 316.1868 0009333 241.1097 118.8958 15.55443039  8396
HMU-SAT2                
1 67687U 98067YD  26091.89039571  .00048342  00000+0  73195-3 0  9992
2 67687  51.6317 316.3398 0008895 243.7155 116.2923 15.54129932  8316
LEOPARD                 
1 67688U 98067YE  26091.87542653  .00054338  00000+0  79652-3 0  9997
2 67688  51.6312 316.2399 0009083 241.2803 118.7275 15.54964174  8317
CREW DRAGON 12          
1 67796U 26031A   26091.87535882  .00008601  00000+0  16573-3 0  9990
2 67796  51.6331 317.7347 0006236 261.1612  98.8670 15.48704825559892
PROGRESS-MS 33          
1 68319U 26058A   26091.87535882  .00008601  00000+0  16573-3 0  9991
2 68319  51.6331 317.7347 0006236 261.1612  98.8670 15.48704825  1256
